YAOGAN-43 01G           
1 60464U 24148G   26068.44348481  .00010133  00000+0  35873-3 0  9993
2 60464  35.0006  62.0013 0007382 306.3543  53.6492 15.28332833 87004
STARLINK-34908          
1 65329U 25189G   26068.66851110  .00027818  00000+0  94807-3 0  9996
2 65329  53.1577 206.8337 0001095  85.1527 274.9599 15.30191940 31100
