[{"OBJECT_NAME":"YAOGAN-43 01G","OBJECT_ID":"2024-148G","EPOCH":"2026-03-09T10:38:37.087584","MEAN_MOTION":15.28332833,"ECCENTRICITY":0.00073829,"INCLINATION":35.0006,"RA_OF_ASC_NODE":62.0013,"ARG_OF_PERICENTER":306.3543,"MEAN_ANOMALY":53.6492,"EPHEMERIS_TYPE":0,"CLASSIFICATION_TYPE":"U","NORAD_CAT_ID":60464,"ELEMENT_SET_NO":999,"REV_AT_EPOCH":8700,"BSTAR":0.00035872736,"MEAN_MOTION_DOT":0.00010133,"MEAN_MOTION_DDOT":0},{"OBJECT_NAME":"STARLINK-34908","OBJECT_ID":"2025-189G","EPOCH":"2026-03-09T16:02:39.359040","MEAN_MOTION":15.3019194,"ECCENTRICITY":0.0001095,"INCLINATION":53.1577,"RA_OF_ASC_NODE":206.8337,"ARG_OF_PERICENTER":85.1527,"MEAN_ANOMALY":274.9599,"EPHEMERIS_TYPE":0,"CLASSIFICATION_TYPE":"U","NORAD_CAT_ID":65329,"ELEMENT_SET_NO":999,"REV_AT_EPOCH":3110,"BSTAR":0.00094806723,"MEAN_MOTION_DOT":0.00027818,"MEAN_MOTION_DDOT":0}]
